INTELSAT 23 (IS-23)     
1 38867U 12057A   26192.83960934 -.00000281  00000+0  00000+0 0  9999
2 38867   0.0143  31.7549 0000236 152.6162 354.6151  1.00274462 50203
FM-6                    
1 39360U 13058A   26192.68443999 -.00000011  00000+0  00000+0 0  9991
2 39360   0.0158  50.9126 0001273 129.5499 239.1665  1.00270766 46317
INTELSAT 30 (IS-30)     
1 40271U 14062A   26192.83128931 -.00000147  00000+0  00000+0 0  9993
2 40271   0.0177  48.7867 0001368 332.6147 112.5503  1.00271720  7043
DIRECTV 14              
1 40333U 14078B   26192.83033597 -.00000121  00000+0  00000+0 0  9994
2 40333   0.0111  39.8160 0000274 268.1246 181.4680  1.00269938 42290
DIRECTV 15              
1 40663U 15026A   26192.82972929 -.00000098  00000+0  00000+0 0  9997
2 40663   0.0189  71.1042 0000207 222.9242 191.5327  1.00270532 40716
SKY MEXICO-1            
1 40664U 15026B   26192.83449598 -.00000230  00000+0  00000+0 0  9998
2 40664   0.0136   5.7441 0002306 128.8513  16.7610  1.00270928 40703
INTELSAT 34 (IS-34)     
1 40874U 15039A   26192.83908934 -.00000281  00000+0  00000+0 0  9995
2 40874   0.0109   3.9323 0000383 341.4714 190.9193  1.00271989 39880
INTELSAT 31 (IS-31)     
1 41581U 16035A   26192.83128931 -.00000146  00000+0  00000+0 0  9999
2 41581   0.0182 284.5667 0001134 357.7820 211.5987  1.00270831 36937
INTELSAT 36 (IS-36)     
1 41747U 16053A   26192.51016895 -.00000018  00000+0  00000+0 0  9991
2 41747   0.0105 355.6291 0002513 345.6309 200.3095  1.00269566 36208
INTELSAT 32E (IS-32E)   
1 41945U 17007B   26192.84151602  .00000000  00000+0  00000+0 0  9993
2 41945   0.0258  38.9305 0000462 266.3977 244.1878  1.00270600 34478
INTELSAT 35E (IS-35E)   
1 42818U 17041A   26192.77200286 -.00000234  00000+0  00000+0 0  9996
2 42818   0.0180  37.3085 0001593  72.2043  63.5883  1.00270104 33066
INTELSAT 37E (IS-37E)   
1 42950U 17059A   26192.84656384 -.00000137  00000+0  00000+0 0  9996
2 42950   0.0138  61.5341 0002491  56.4889  98.4865  1.00270571 32312
AZERSPACE 2 (IS-38)     
1 43632U 18074A   26192.21739435  .00000000  00000+0  00000+0 0  9990
2 43632   0.0273  38.7820 0001235  92.2329 281.4917  1.00270656 28681
HORIZONS-3E             
1 43633U 18074B   26192.74097604 -.00000026  00000+0  00000+0 0  9993
2 43633   0.0414 220.4493 0000856  61.4867  83.4617  1.00271927 28586
AT&T T-16               
1 44333U 19034A   26192.82998929 -.00000111  00000+0  00000+0 0  9992
2 44333   0.0123  64.3040 0000874 263.5194 159.8474  1.00269960 25885
INTELSAT 39 (IS-39)     
1 44476U 19049B   26192.43465111  .00000000  00000+0  00000+0 0  9991
2 44476   0.0278  39.2819 0000889 281.8876 186.5962  1.00270150 25371
GALAXY 30 (G-30)        
1 46114U 20056C   26192.75406277  .00000000  00000+0  00000+0 0  9995
2 46114   0.0298  46.6859 0001931  69.9246 319.5079  1.00270605 21531
GALAXY 33 (G-33)        
1 54026U 22128A   26192.68114664  .00000084  00000+0  00000+0 0  9998
2 54026   0.0122  32.2314 0001763  86.9299 282.6342  1.00270934 13983
GALAXY 34 (G-34)        
1 54027U 22128B   26192.04037516  .00000067  00000+0  00000+0 0  9990
2 54027   0.0112  37.5715 0001349  92.1383  44.7761  1.00269972 14151
GALAXY 31 (G-31)        
1 54243U 22153A   26192.68357332  .00000000  00000+0  00000+0 0  9996
2 54243   0.0240  56.8389 0000918  61.9689 295.8604  1.00270051  7379
GALAXY 32 (G-32)        
1 54244U 22153B   26192.26174809 -.00000167  00000+0  00000+0 0  9992
2 54244   0.0115  41.9388 0001456   4.2849 246.1793  1.00271069 13387
GALAXY 35 (G-35)        
1 54741U 22170A   26192.83154931  .00000000  00000+0  00000+0 0  9995
2 54741   0.0204  48.3005 0001863  68.9556  18.7328  1.00269280 13142
GALAXY 36 (G-36)        
1 54742U 22170B   26192.83250264 -.00000181  00000+0  00000+0 0  9993
2 54742   0.0281 111.5754 0002360 348.2212  40.6410  1.00271128 13025
GALAXY 37 (G-37)        
1 57493U 23112A   26192.68235998  .00000053  00000+0  00000+0 0  9993
2 57493   0.0152  66.1275 0001745  49.8835 292.2202  1.00270663 10789
